OBJECT_NAME,OBJECT_ID,EPOCH,MEAN_MOTION,ECCENTRICITY,INCLINATION,RA_OF_ASC_NODE,ARG_OF_PERICENTER,MEAN_ANOMALY,EPHEMERIS_TYPE,CLASSIFICATION_TYPE,NORAD_CAT_ID,ELEMENT_SET_NO,REV_AT_EPOCH,BSTAR,MEAN_MOTION_DOT,MEAN_MOTION_DDOT
GLOBALSTAR M069,2007-020C,2026-06-14T00:42:53.059392,12.23471008,.0002405,52.0032,261.0641,141.2525,29.3939,0,U,31573,999,87841,.23458143E-3,-.67E-6,0
GLOBALSTAR M072,2007-020D,2026-06-14T02:30:21.292704,11.91658465,.0001405,51.9921,108.4521,323.9216,49.6867,0,U,31574,999,87461,-.27729613E-3,-.104E-5,0
GLOBALSTAR M066,2007-048C,2026-06-13T23:28:16.449024,12.30387931,.00054365,51.9600,67.1246,37.2256,335.0313,0,U,32265,999,85983,-.41047812E-3,-.143E-5,0
GLOBALSTAR M079,2010-054A,2026-06-14T02:48:06.094944,12.62266081,.00006424,52.0029,118.0165,16.9430,356.4067,0,U,37188,999,72216,-.66588042E-4,-.116E-5,0
GLOBALSTAR M074,2010-054B,2026-06-14T03:25:53.211072,12.62268371,.00004786,52.0004,117.2017,48.3847,324.4683,0,U,37189,999,72277,-.13189019E-3,-.127E-5,0
GLOBALSTAR M076,2010-054C,2026-06-14T04:03:57.388608,12.62261778,.00006696,52.0023,117.3241,38.3904,334.8007,0,U,37190,999,72249,-.50603742E-4,-.113E-5,0
GLOBALSTAR M077,2010-054D,2026-06-14T07:16:19.575840,11.67547757,.0002778,51.9923,186.6169,167.4484,277.9236,0,U,37191,999,72080,.3877784E-3,-.57E-6,0
GLOBALSTAR M075,2010-054E,2026-06-14T06:45:22.487328,12.62267395,.0000094,51.9920,159.0398,20.8345,81.8269,0,U,37192,999,72157,-.1012781E-4,-.106E-5,0
GLOBALSTAR M073,2010-054F,2026-06-14T00:35:13.006176,12.62262106,.0000867,52.0066,73.9195,41.8960,330.6527,0,U,37193,999,72353,-.52290842E-4,-.113E-5,0
GLOBALSTAR M083,2011-033A,2026-06-14T07:26:26.526336,12.62263032,.00009053,51.9873,21.2829,61.7603,110.5543,0,U,37739,999,69258,.67229126E-4,-.92E-6,0
GLOBALSTAR M088,2011-033B,2026-06-14T03:00:35.932896,12.62268653,.00007558,52.0223,288.2676,121.7532,49.5467,0,U,37740,999,68810,.39584521E-4,-.97E-6,0
GLOBALSTAR M091,2011-033C,2026-06-13T23:30:58.877568,12.62263849,.00003759,51.9992,251.6807,146.1422,24.3689,0,U,37741,999,68887,.13031573E-3,-.8E-6,0
GLOBALSTAR M085,2011-033D,2026-06-14T06:18:36.313920,12.62264101,.00001079,52.0104,202.1078,245.2369,192.3113,0,U,37742,999,68942,.15956553E-3,-.75E-6,0
GLOBALSTAR M081,2011-033E,2026-06-14T06:57:17.663328,12.62264951,.00001591,51.9937,204.4657,118.8756,320.4425,0,U,37743,999,68957,.15563228E-3,-.76E-6,0
GLOBALSTAR M089,2011-033F,2026-06-14T04:06:20.271744,12.62267209,.00003432,51.9904,158.9854,91.7326,348.6914,0,U,37744,999,69040,.45037211E-4,-.96E-6,0
GLOBALSTAR M084,2011-080A,2026-06-14T07:40:55.999776,12.62267502,.00010716,52.0026,26.0105,80.7208,257.1658,0,U,38040,999,66839,.32961203E-4,-.98E-6,0
GLOBALSTAR M080,2011-080B,2026-06-13T22:09:14.556096,12.62269311,.0000352,52.0077,28.9364,70.3685,32.5991,0,U,38041,999,66847,.55935E-4,-.94E-6,0
GLOBALSTAR M082,2011-080C,2026-06-14T06:28:52.970592,12.62263712,.00005551,52.0095,343.3804,91.6356,78.9015,0,U,38042,999,66922,.44638678E-4,-.96E-6,0
GLOBALSTAR M092,2011-080D,2026-06-14T01:13:08.275872,12.62266943,.00006436,52.0093,74.4446,57.7646,314.8823,0,U,38043,999,66765,-.29708588E-4,-.109E-5,0
GLOBALSTAR M090,2011-080E,2026-06-14T05:13:24.186720,12.62269037,.00008049,52.0142,337.4953,87.8027,83.3926,0,U,38044,999,66933,.22895184E-4,-.1E-5,0
GLOBALSTAR M086,2011-080F,2026-06-14T05:44:57.639264,12.62286687,.00016667,51.9915,337.3632,62.8638,108.7512,0,U,38045,999,66928,.68256148E-4,-.92E-6,0
GLOBALSTAR M097,2013-005A,2026-06-13T21:59:27.107808,12.62247200,.0000349,52.0048,253.2938,127.0315,233.0583,0,U,39072,999,61649,.28009E-4,-.99E-6,0
GLOBALSTAR M093,2013-005B,2026-06-13T23:14:58.551072,12.62265864,.00002265,52.0100,246.4796,100.7670,259.3222,0,U,39073,999,61645,.14867709E-3,-.77E-6,0
GLOBALSTAR M094,2013-005C,2026-06-14T06:50:56.270400,12.62268585,.00003381,51.9926,159.6343,354.0729,6.0134,0,U,39074,999,61810,-.16248819E-4,-.107E-5,0
GLOBALSTAR M096,2013-005D,2026-06-14T05:16:18.574752,12.62265599,.00000657,52.0054,208.6347,200.7667,159.3197,0,U,39075,999,61701,.17925538E-3,-.72E-6,0
GLOBALSTAR M078,2013-005E,2026-06-13T15:19:15.053088,12.62257981,.0000529,51.9890,294.4173,214.5079,145.5753,0,U,39076,999,61556,-.47637E-3,-.189E-5,0
GLOBALSTAR M095,2013-005F,2026-06-14T01:27:54.761472,12.62263358,.00002878,52.0094,290.7305,127.8015,232.2878,0,U,39077,999,61547,.4472958E-5,-.103E-5,0
GLOBALSTAR M087,2022-064A,2026-06-13T23:52:58.422432,12.62269004,.00007002,52.0004,72.1703,31.1522,328.9386,0,U,52888,999,19073,-.15570679E-4,-.107E-5,0
